{
  "links" : {
    "next" : "https://api.nasa.gov/neo/rest/v1/feed?start_date=2005-10-23&end_date=2005-10-23&detailed=true&api_key=t0TVs3DtDT2H8Oy2Zy8m2eVrNsAVKAexjcZXUckd",
    "prev" : "https://api.nasa.gov/neo/rest/v1/feed?start_date=2005-10-21&end_date=2005-10-21&detailed=true&api_key=t0TVs3DtDT2H8Oy2Zy8m2eVrNsAVKAexjcZXUckd",
    "self" : "https://api.nasa.gov/neo/rest/v1/feed?start_date=2005-10-22&end_date=2005-10-22&detailed=true&api_key=t0TVs3DtDT2H8Oy2Zy8m2eVrNsAVKAexjcZXUckd"
  },
  "element_count" : 11,
  "near_earth_objects" : {
    "2005-10-22" : [ {
      "links" : {
        "self" : "https://api.nasa.gov/neo/rest/v1/neo/3299814?api_key=t0TVs3DtDT2H8Oy2Zy8m2eVrNsAVKAexjcZXUckd"
      },
      "neo_reference_id" : "3299814",
      "name" : "(2005 VD7)",
      "nasa_jpl_url" : "http://ssd.jpl.nasa.gov/sbdb.cgi?sstr=3299814",
      "absolute_magnitude_h" : 22.4,
      "estimated_diameter" : {
        "kilometers" : {
          "estimated_diameter_min" : 0.0880146521,
          "estimated_diameter_max" : 0.1968067451
        },
        "meters" : {
          "estimated_diameter_min" : 88.0146520901,
          "estimated_diameter_max" : 196.8067450894
        },
        "miles" : {
          "estimated_diameter_min" : 0.0546897524,
          "estimated_diameter_max" : 0.122290004
        },
        "feet" : {
          "estimated_diameter_min" : 288.7619911632,
          "estimated_diameter_max" : 645.6914415591
        }
      },
      "is_potentially_hazardous_asteroid" : false,
      "close_approach_data" : [ {
        "close_approach_date" : "2005-10-22",
        "epoch_date_close_approach" : 1129964400000,
        "relative_velocity" : {
          "kilometers_per_second" : "7.8633289473",
          "kilometers_per_hour" : "28307.9842103619",
          "miles_per_hour" : "17589.4805222663"
        },
        "miss_distance" : {
          "astronomical" : "0.0233924501",
          "lunar" : "9.0996627808",
          "kilometers" : "3499460.75",
          "miles" : "2174464"
        },
        "orbiting_body" : "Earth"
      } ],
      "orbital_data" : {
        "orbit_id" : "10",
        "orbit_determination_date" : "2017-04-06 09:09:53",
        "orbit_uncertainty" : "7",
        "minimum_orbit_intersection" : ".0239069",
        "jupiter_tisserand_invariant" : "3.345",
        "epoch_osculation" : "2458000.5",
        "eccentricity" : ".5605925785662602",
        "semi_major_axis" : "2.319485123299053",
        "inclination" : "5.193070844332689",
        "ascending_node_longitude" : "27.90114233675139",
        "orbital_period" : "1290.285491608256",
        "perihelion_distance" : "1.019198977082757",
        "perihelion_argument" : "355.0307396743582",
        "aphelion_distance" : "3.61977126951535",
        "perihelion_time" : "2457525.920161922130",
        "mean_anomaly" : "132.411580862683",
        "mean_motion" : ".2790080198075263",
        "equinox" : "J2000"
      }
    }, {
      "links" : {
        "self" : "https://api.nasa.gov/neo/rest/v1/neo/3303320?api_key=t0TVs3DtDT2H8Oy2Zy8m2eVrNsAVKAexjcZXUckd"
      },
      "neo_reference_id" : "3303320",
      "name" : "(2005 VO118)",
      "nasa_jpl_url" : "http://ssd.jpl.nasa.gov/sbdb.cgi?sstr=3303320",
      "absolute_magnitude_h" : 24.6,
      "estimated_diameter" : {
        "kilometers" : {
          "estimated_diameter_min" : 0.0319561887,
          "estimated_diameter_max" : 0.0714562102
        },
        "meters" : {
          "estimated_diameter_min" : 31.9561886721,
          "estimated_diameter_max" : 71.4562101727
        },
        "miles" : {
          "estimated_diameter_min" : 0.0198566489,
          "estimated_diameter_max" : 0.0444008168
        },
        "feet" : {
          "estimated_diameter_min" : 104.8431420431,
          "estimated_diameter_max" : 234.436392583
        }
      },
      "is_potentially_hazardous_asteroid" : false,
      "close_approach_data" : [ {
        "close_approach_date" : "2005-10-22",
        "epoch_date_close_approach" : 1129964400000,
        "relative_velocity" : {
          "kilometers_per_second" : "6.5683162886",
          "kilometers_per_hour" : "23645.9386389719",
          "miles_per_hour" : "14692.6667059767"
        },
        "miss_distance" : {
          "astronomical" : "0.0894175604",
          "lunar" : "34.7834320068",
          "kilometers" : "13376677",
          "miles" : "8311881.5"
        },
        "orbiting_body" : "Earth"
      } ],
      "orbital_data" : {
        "orbit_id" : "6",
        "orbit_determination_date" : "2017-04-06 09:09:52",
        "orbit_uncertainty" : "9",
        "minimum_orbit_intersection" : ".0870121",
        "jupiter_tisserand_invariant" : "3.182",
        "epoch_osculation" : "2453678.5",
        "eccentricity" : ".5768551439488587",
        "semi_major_axis" : "2.547144345139403",
        "inclination" : "4.45529555445567",
        "ascending_node_longitude" : "50.00607901729683",
        "orbital_period" : "1484.836935619528",
        "perihelion_distance" : "1.077811027265491",
        "perihelion_argument" : "342.3264717575414",
        "aphelion_distance" : "4.016477663013315",
        "perihelion_time" : "2453668.032141739893",
        "mean_anomaly" : "2.537941293914671",
        "mean_motion" : ".2424508653873126",
        "equinox" : "J2000"
      }
    }, {
      "links" : {
        "self" : "https://api.nasa.gov/neo/rest/v1/neo/2141432?api_key=t0TVs3DtDT2H8Oy2Zy8m2eVrNsAVKAexjcZXUckd"
      },
      "neo_reference_id" : "2141432",
      "name" : "141432 (2002 CQ11)",
      "nasa_jpl_url" : "http://ssd.jpl.nasa.gov/sbdb.cgi?sstr=2141432",
      "absolute_magnitude_h" : 20.0,
      "estimated_diameter" : {
        "kilometers" : {
          "estimated_diameter_min" : 0.2658,
          "estimated_diameter_max" : 0.5943468684
        },
        "meters" : {
          "estimated_diameter_min" : 265.8,
          "estimated_diameter_max" : 594.3468684194
        },
        "miles" : {
          "estimated_diameter_min" : 0.1651604118,
          "estimated_diameter_max" : 0.369309908
        },
        "feet" : {
          "estimated_diameter_min" : 872.047272,
          "estimated_diameter_max" : 1949.9569797852
        }
      },
      "is_potentially_hazardous_asteroid" : true,
      "close_approach_data" : [ {
        "close_approach_date" : "2005-10-22",
        "epoch_date_close_approach" : 1129964400000,
        "relative_velocity" : {
          "kilometers_per_second" : "15.1691738057",
          "kilometers_per_hour" : "54609.0257005002",
          "miles_per_hour" : "33931.924885958"
        },
        "miss_distance" : {
          "astronomical" : "0.4044387084",
          "lunar" : "157.3266601562",
          "kilometers" : "60503168",
          "miles" : "37594928"
        },
        "orbiting_body" : "Earth"
      } ],
      "orbital_data" : {
        "orbit_id" : "102",
        "orbit_determination_date" : "2017-04-06 09:27:34",
        "orbit_uncertainty" : "0",
        "minimum_orbit_intersection" : ".0192505",
        "jupiter_tisserand_invariant" : "6.101",
        "epoch_osculation" : "2458000.5",
        "eccentricity" : ".4283132812519154",
        "semi_major_axis" : ".9784568368921948",
        "inclination" : "2.463299292783884",
        "ascending_node_longitude" : "81.35597636609009",
        "orbital_period" : "353.5175145093002",
        "perihelion_distance" : ".5593707785195287",
        "perihelion_argument" : "272.7859806053464",
        "aphelion_distance" : "1.397542895264861",
        "perihelion_time" : "2457893.450959568429",
        "mean_anomaly" : "109.0120092320113",
        "mean_motion" : "1.018337098516032",
        "equinox" : "J2000"
      }
    } ]
  }
}